*******************************************************************************
JPL/HORIZONS                203 Pompeja (A879 SA)          2020-Jun-22 08:39:07
Rec #:     203 (+COV) Soln.date: 2020-Feb-22_15:20:41   # obs: 2827 (1879-2020)
 
IAU76/J2000 helio. ecliptic osc. elements (au, days, deg., period=Julian yrs):
 
  EPOCH=  2455613.5 ! 2011-Feb-21.00 (TDB)         Residual RMS= .32557
   EC= .06077512592861665  QR= 2.572879442453969   TP= 2455728.5495966552
   OM= 348.0014915357708   W=  57.22168250620176   IN= 3.18074900094641
   A= 2.739364675576537    MA= 334.9899593526222   ADIST= 2.905849908699105
   PER= 4.53402            N= .217384856           ANGMOM= .028418609
   DAN= 2.64231            DDN= 2.8221             L= 45.1829527
   B= 2.6738803            MOID= 1.58392           TP= 2011-Jun-16.0495966552
 
Asteroid physical parameters (km, seconds, rotational period in hours):
   GM= n.a.                RAD= 62.296             ROTPER= 24.052
   H= 8.8                  G= .150                 B-V= .702
                           ALBEDO= .036            STYP= DCX:
 
ASTEROID comments: 
1: soln ref.= JPL#108, OCC=0
2: source=ORB
*******************************************************************************
 
 
*******************************************************************************
Ephemeris / WWW_USER Mon Jun 22 08:39:07 2020 Pasadena, USA      / Horizons
*******************************************************************************
Target body name: 203 Pompeja (A879 SA)           {source: JPL#108}
Center body name: Solar System Barycenter (0)     {source: DE431}
Center-site name: BODY CENTER
*******************************************************************************
Start time      : A.D. 1969-Jun-28 00:00:00.0000 TDB
Stop  time      : A.D. 2071-May-04 00:00:00.0000 TDB
Step-size       : 7200 minutes
*******************************************************************************
Center geodetic : 0.00000000,0.00000000,0.0000000 {E-lon(deg),Lat(deg),Alt(km)}
Center cylindric: 0.00000000,0.00000000,0.0000000 {E-lon(deg),Dxy(km),Dz(km)}
Center radii    : (undefined)                                                  
Small perturbers: Yes                             {source: SB431-N16}
Output units    : AU-D
Output type     : GEOMETRIC cartesian states
Output format   : 2 (position and velocity)
Reference frame : Ecliptic of J2000.0
*******************************************************************************
Initial IAU76/J2000 heliocentric ecliptic osculating elements (au, days, deg.):
  EPOCH=  2455613.5 ! 2011-Feb-21.00 (TDB)         Residual RMS= .32557        
   EC= .06077512592861665  QR= 2.572879442453969   TP= 2455728.5495966552      
   OM= 348.0014915357708   W=  57.22168250620176   IN= 3.18074900094641        
  Equivalent ICRF heliocentric equatorial cartesian coordinates (au, au/d):
   X= 2.476158206707631E+00  Y= 6.674949689624777E-01  Z= 3.654697014071825E-01
  VX=-3.505878014132584E-03 VY= 9.320775586541480E-03 VZ= 4.612257395489538E-03
Asteroid physical parameters (km, seconds, rotational period in hours):        
   GM= n.a.                RAD= 62.296             ROTPER= 24.052              
   H= 8.8                  G= .150                 B-V= .702                   
                           ALBEDO= .036            STYP= DCX:                  
*******************************************************************************
            JDTDB,            Calendar Date (TDB),        delta-T,                      X,                      Y,                      Z,                     VX,                     VY,                     VZ,
******************************************************************************************************************************************************************************************************************
$$SOE
2457900.500000000, A.D. 2017-May-27 00:00:00.0000,      69.185004, -2.694036775743386E+00,  7.820049920680942E-01,  1.070478697642889E-02, -3.317220477006787E-03, -9.558259317649680E-03, -5.576061575175626E-04,
2457905.500000000, A.D. 2017-Jun-01 00:00:00.0000,      69.184889, -2.710171366940625E+00,  7.340862633690052E-01,  7.915106246047588E-03, -3.136522053287744E-03, -9.608674607254028E-03, -5.582347341629662E-04,
2457910.500000000, A.D. 2017-Jun-06 00:00:00.0000,      69.184767, -2.725401106185073E+00,  6.859238185494978E-01,  5.122752907684796E-03, -2.955289556902408E-03, -9.655746394326448E-03, -5.586753484865452E-04,
2457915.500000000, A.D. 2017-Jun-11 00:00:00.0000,      69.184638, -2.739723470578318E+00,  6.375343649548526E-01,  2.328664521419489E-03, -2.773581883578842E-03, -9.699478892951840E-03, -5.589289080306711E-04,
2457920.500000000, A.D. 2017-Jun-16 00:00:00.0000,      69.184504, -2.753136230342522E+00,  5.889345866731359E-01, -4.662259931800939E-04, -2.591457384947930E-03, -9.739877187907866E-03, -5.589963612269500E-04,
2457925.500000000, A.D. 2017-Jun-21 00:00:00.0000,      69.184369, -2.765637446087493E+00,  5.401411402415950E-01, -3.260990558078196E-03, -2.408973863699466E-03, -9.776947210823559E-03, -5.588786960336948E-04,
2457930.500000000, A.D. 2017-Jun-26 00:00:00.0000,      69.184232, -2.777225466055787E+00,  4.911706504707020E-01, -6.054706131114436E-03, -2.226188569693033E-03, -9.810695716951206E-03, -5.585769386318890E-04,
2457935.500000000, A.D. 2017-Jul-01 00:00:00.0000,      69.184093, -2.787898923351381E+00,  4.420397063832306E-01, -8.846454894021040E-03, -2.043158197282869E-03, -9.841130262323829E-03, -5.580921521980179E-04,
2457940.500000000, A.D. 2017-Jul-06 00:00:00.0000,      69.183951, -2.797656733157322E+00,  3.927648572672487E-01, -1.163532443441649E-02, -1.859938883459677E-03, -9.868259181007311E-03, -5.574254357100515E-04,
2457945.500000000, A.D. 2017-Jul-11 00:00:00.0000,      69.183810, -2.806498089944583E+00,  3.433626088423674E-01, -1.442040792177855E-02, -1.676586206104020E-03, -9.892091562621819E-03, -5.565779227278331E-04,
2457950.500000000, A.D. 2017-Jul-16 00:00:00.0000,      69.183669, -2.814422464672200E+00,  2.938494195366838E-01, -1.720080427727242E-02, -1.493155182319002E-03, -9.912637230606985E-03, -5.555507801644254E-04,
2457955.500000000, A.D. 2017-Jul-21 00:00:00.0000,      69.183533, -2.821429601980397E+00,  2.442416968701768E-01, -1.997561833754539E-02, -1.309700267372169E-03, -9.929906721353392E-03, -5.543452071101906E-04,
2457960.500000000, A.D. 2017-Jul-26 00:00:00.0000,      69.183401, -2.827519517380620E+00,  1.945557939407622E-01, -2.274396101283347E-02, -1.126275354528863E-03, -9.943911263960726E-03, -5.529624337324080E-04,
2457965.500000000, A.D. 2017-Jul-31 00:00:00.0000,      69.183272, -2.832692494446766E+00,  1.448080060104442E-01, -2.550494943971884E-02, -9.429337756577692E-04, -9.954662760424450E-03, -5.514037202316692E-04,
2457970.500000000, A.D. 2017-Aug-05 00:00:00.0000,      69.183147, -2.836949082010916E+00,  9.501456718952608E-02, -2.825770712876378E-02, -7.597283023950821E-04, -9.962173766233096E-03, -5.496703558338387E-04,
2457975.500000000, A.D. 2017-Aug-10 00:00:00.0000,      69.183028, -2.840290091365996E+00,  4.519164721668033E-02, -3.100136410717563E-02, -5.767111477437710E-04, -9.966457471437864E-03, -5.477636578100642E-04,
2457980.500000000, A.D. 2017-Aug-15 00:00:00.0000,      69.182916, -2.842716593477439E+00, -4.644651667623714E-03, -3.373505705664322E-02, -3.939339680667472E-04, -9.967527682246437E-03, -5.456849705259467E-04,
2457985.500000000, A.D. 2017-Aug-20 00:00:00.0000,      69.182813, -2.844229916205762E+00, -5.447829775702606E-02, -3.645792944649841E-02, -2.114478654632168E-04, -9.965398803164516E-03, -5.434356645227261E-04,
2457990.500000000, A.D. 2017-Aug-25 00:00:00.0000,      69.182719, -2.844831641541974E+00, -1.042933328272725E-01, -3.916913166236780E-02, -2.930339051981607E-05, -9.960085819690474E-03, -5.410171356324497E-04,
2457995.500000000, A.D. 2017-Aug-30 00:00:00.0000,      69.182634, -2.844523602857641E+00, -1.540738749990579E-01, -4.186782113048584E-02,  1.524494545814585E-04, -9.951604281557882E-03, -5.384308041272404E-04,
2458000.500000000, A.D. 2017-Sep-04 00:00:00.0000,      69.182556, -2.843307882171319E+00, -2.038041215184352E-01, -4.455316243783736E-02,  3.337612126294686E-04, -9.939970286517883E-03, -5.356781139013519E-04,
2458005.500000000, A.D. 2017-Sep-09 00:00:00.0000,      69.182489, -2.841186807432856E+00, -2.534683514574676E-01, -4.722432744828487E-02,  5.145829676850696E-04, -9.925200464653863E-03, -5.327605316823420E-04,
2458010.500000000, A.D. 2017-Sep-14 00:00:00.0000,      69.182433, -2.838162949826669E+00, -3.030509283378184E-01, -4.988049541481824E-02,  6.948663411997405E-04, -9.907311963250676E-03, -5.296795462690848E-04,
2458015.500000000, A.D. 2017-Sep-19 00:00:00.0000,      69.182391, -2.834239121094822E+00, -3.525363026802576E-01, -5.252085308807863E-02,  8.745634879694567E-04, -9.886322432314944E-03, -5.264366678068878E-04,
2458020.500000000, A.D. 2017-Sep-24 00:00:00.0000,      69.182361, -2.829418370881158E+00, -4.019090144836638E-01, -5.514459482141417E-02,  1.053627091690000E-03, -9.862250010860210E-03, -5.230334271313442E-04,
2458025.500000000, A.D. 2017-Sep-29 00:00:00.0000,      69.182341, -2.823703984099365E+00, -4.511536956371813E-01, -5.775092267286911E-02,  1.232010359814078E-03, -9.835113313838172E-03, -5.194713751949329E-04,
2458030.500000000, A.D. 2017-Oct-04 00:00:00.0000,      69.182333, -2.817099478328232E+00, -5.002550722679986E-01, -6.033904650443064E-02,  1.409667017889682E-03, -9.804931419410294E-03, -5.157520825335053E-04,
2458035.500000000, A.D. 2017-Oct-09 00:00:00.0000,      69.182336, -2.809608601235433E+00, -5.491979670260492E-01, -6.290818407859444E-02,  1.586551303884827E-03, -9.771723856462047E-03, -5.118771387224957E-04,
